[{"OBJECT_NAME":"STARLINK-1423","OBJECT_ID":"2020-035BF","EPOCH":"2026-03-09T06:28:42.791808","MEAN_MOTION":15.52734851,"ECCENTRICITY":0.00077383,"INCLINATION":53.0523,"RA_OF_ASC_NODE":24.0364,"ARG_OF_PERICENTER":108.2998,"MEAN_ANOMALY":251.8853,"EPHEMERIS_TYPE":0,"CLASSIFICATION_TYPE":"U","NORAD_CAT_ID":45710,"ELEMENT_SET_NO":999,"REV_AT_EPOCH":31928,"BSTAR":0.0016417081,"MEAN_MOTION_DOT":0.00104188,"MEAN_MOTION_DDOT":0},{"OBJECT_NAME":"ELECTRON KICK STAGE R\/B","OBJECT_ID":"2022-113C","EPOCH":"2026-03-09T17:52:10.444512","MEAN_MOTION":15.55580048,"ECCENTRICITY":0.00047816,"INCLINATION":97.4909,"RA_OF_ASC_NODE":143.5752,"ARG_OF_PERICENTER":190.5776,"MEAN_ANOMALY":169.5378,"EPHEMERIS_TYPE":0,"CLASSIFICATION_TYPE":"U","NORAD_CAT_ID":53817,"ELEMENT_SET_NO":999,"REV_AT_EPOCH":19274,"BSTAR":0.0010825537,"MEAN_MOTION_DOT":0.0007464,"MEAN_MOTION_DDOT":0}]
